[Satellite]
VERSION=1.1
NAME=CHINASAT 10 (ZX 10)
NICKNAME=CHINASAT 10 (ZX 10)
TLE1=1 37677U 11026A   17186.27332745 -.00000357  00000-0  00000-0 0  9992
TLE2=2 37677   0.0601 272.0307 0004103 233.5245 346.7809  1.00269823 22194
